STARLINK-34289          
1 64225U 25117Y   25354.45120908  .00013835  00000+0  47858-3 0  9997
2 64225  53.1586  47.6767 0001133  84.3981 275.7149 15.30185327 32428
STARLINK-34347          
1 64226U 25117Z   25354.39539243  .00014941  00000+0  51547-3 0  9996
2 64226  53.1597  48.0379 0001447 100.4265 259.6899 15.30206084 32380
STARLINK-34330          
1 64227U 25117AA  25354.44487629  .00016290  00000+0  56096-3 0  9996
2 64227  53.1591  47.6313 0000838 341.0514  19.0456 15.30196322 32392
STARLINK-34167          
1 64228U 25117AB  25354.41851901  .00031577  00000+0  10747-2 0  9999
2 64228  53.1641  47.4758 0001051 341.6491  18.4472 15.30170114 32424
STARLINK-34241          
1 64229U 25117AC  25354.47232790  .00028287  00000+0  96397-3 0  9995
2 64229  53.1602  47.8745 0001346  64.3571 295.7569 15.30185747 32422
STARLINK-11686 [DTC]    
1 64233U 25119A   25354.28874139  .00208724  00000+0  15821-2 0  9998
2 64233  42.9986 328.0203 0004072 252.0030 108.0394 15.70947032 32751
STARLINK-11682 [DTC]    
1 64234U 25119B   25353.98585340  .00183333  00000+0  13906-2 0  9998
2 64234  43.0005 330.0569 0002448 283.9218  76.1377 15.71016539 32701
STARLINK-11675 [DTC]    
1 64235U 25119C   25353.63607731  .00182899  00000+0  13959-2 0  9994
2 64235  43.0002 331.7161 0002161 267.3230  92.7390 15.70869704 32659
STARLINK-11691 [DTC]    
1 64236U 25119D   25354.00165019  .00148608  00000+0  11410-2 0  9995
2 64236  42.9995 329.2856 0001623 259.1272 100.9413 15.70841447 32718
STARLINK-11670 [DTC]    
1 64237U 25119E   25354.28783569  .00207856  00000+0  15789-2 0  9996
2 64237  43.0025 328.0103 0002432 268.4814  91.5775 15.70903637 32751
STARLINK-11708 [DTC]    
1 64238U 25119F   25354.29314726  .00174721  00000+0  13334-2 0  9991
2 64238  42.9987 328.0526 0001297 282.6749  77.3974 15.70899382 32753
STARLINK-11683 [DTC]    
1 64239U 25119G   25353.99103554  .00288195  00000+0  21603-2 0  9992
2 64239  42.9996 329.2008 0001631 274.7661  85.3020 15.70973770 32710
STARLINK-11684 [DTC]    
1 64240U 25119H   25353.95930947  .00250692  00000+0  18995-2 0  9995
2 64240  42.9993 329.8407 0001311 319.8146  40.2624 15.70831908 32707
STARLINK-11689 [DTC]    
1 64241U 25119J   25353.88510360  .00066884  00000+0  52000-3 0  9995
2 64241  42.9987 330.1380 0000801 297.0301  63.0485 15.70865626 32699
STARLINK-11690 [DTC]    
1 64242U 25119K   25354.00695899  .00252796  00000+0  19029-2 0  9994
2 64242  43.0002 329.3287 0001974 224.1716 135.8995 15.70981881 32718
STARLINK-11694 [DTC]    
1 64243U 25119L   25354.29845338  .00168739  00000+0  12876-2 0  9997
2 64243  43.0015 328.0952 0002630 264.8955  95.1612 15.70919194 32750
