[{"OBJECT_NAME":"STARLINK-34289","OBJECT_ID":"2025-117Y","EPOCH":"2025-12-20T10:49:44.464512","MEAN_MOTION":15.30185327,"ECCENTRICITY":0.00011331,"INCLINATION":53.1586,"RA_OF_ASC_NODE":47.6767,"ARG_OF_PERICENTER":84.3981,"MEAN_ANOMALY":275.7149,"EPHEMERIS_TYPE":0,"CLASSIFICATION_TYPE":"U","NORAD_CAT_ID":64225,"ELEMENT_SET_NO":999,"REV_AT_EPOCH":3242,"BSTAR":0.00047858047,"MEAN_MOTION_DOT":0.00013835,"MEAN_MOTION_DDOT":0},{"OBJECT_NAME":"STARLINK-34347","OBJECT_ID":"2025-117Z","EPOCH":"2025-12-20T09:29:21.905952","MEAN_MOTION":15.30206084,"ECCENTRICITY":0.00014477,"INCLINATION":53.1597,"RA_OF_ASC_NODE":48.0379,"ARG_OF_PERICENTER":100.4265,"MEAN_ANOMALY":259.6899,"EPHEMERIS_TYPE":0,"CLASSIFICATION_TYPE":"U","NORAD_CAT_ID":64226,"ELEMENT_SET_NO":999,"REV_AT_EPOCH":3238,"BSTAR":0.0005154653,"MEAN_MOTION_DOT":0.00014941,"MEAN_MOTION_DDOT":0},{"OBJECT_NAME":"STARLINK-34330","OBJECT_ID":"2025-117AA","EPOCH":"2025-12-20T10:40:37.311456","MEAN_MOTION":15.30196322,"ECCENTRICITY":8.38e-5,"INCLINATION":53.1591,"RA_OF_ASC_NODE":47.6313,"ARG_OF_PERICENTER":341.0514,"MEAN_ANOMALY":19.0456,"EPHEMERIS_TYPE":0,"CLASSIFICATION_TYPE":"U","NORAD_CAT_ID":64227,"ELEMENT_SET_NO":999,"REV_AT_EPOCH":3239,"BSTAR":0.00056096182,"MEAN_MOTION_DOT":0.0001629,"MEAN_MOTION_DDOT":0},{"OBJECT_NAME":"STARLINK-34167","OBJECT_ID":"2025-117AB","EPOCH":"2025-12-20T10:02:40.042464","MEAN_MOTION":15.30170114,"ECCENTRICITY":0.00010512,"INCLINATION":53.1641,"RA_OF_ASC_NODE":47.4758,"ARG_OF_PERICENTER":341.6491,"MEAN_ANOMALY":18.4472,"EPHEMERIS_TYPE":0,"CLASSIFICATION_TYPE":"U","NORAD_CAT_ID":64228,"ELEMENT_SET_NO":999,"REV_AT_EPOCH":3242,"BSTAR":0.0010747145,"MEAN_MOTION_DOT":0.00031577,"MEAN_MOTION_DDOT":0},{"OBJECT_NAME":"STARLINK-34241","OBJECT_ID":"2025-117AC","EPOCH":"2025-12-20T11:20:09.130560","MEAN_MOTION":15.30185747,"ECCENTRICITY":0.0001346,"INCLINATION":53.1602,"RA_OF_ASC_NODE":47.8745,"ARG_OF_PERICENTER":64.3571,"MEAN_ANOMALY":295.7569,"EPHEMERIS_TYPE":0,"CLASSIFICATION_TYPE":"U","NORAD_CAT_ID":64229,"ELEMENT_SET_NO":999,"REV_AT_EPOCH":3242,"BSTAR":0.0009639702,"MEAN_MOTION_DOT":0.00028287,"MEAN_MOTION_DDOT":0},{"OBJECT_NAME":"STARLINK-11686 [DTC]","OBJECT_ID":"2025-119A","EPOCH":"2025-12-20T06:55:47.256096","MEAN_MOTION":15.70947032,"ECCENTRICITY":0.00040727,"INCLINATION":42.9986,"RA_OF_ASC_NODE":328.0203,"ARG_OF_PERICENTER":252.003,"MEAN_ANOMALY":108.0394,"EPHEMERIS_TYPE":0,"CLASSIFICATION_TYPE":"U","NORAD_CAT_ID":64233,"ELEMENT_SET_NO":999,"REV_AT_EPOCH":3275,"BSTAR":0.0015821146,"MEAN_MOTION_DOT":0.00208724,"MEAN_MOTION_DDOT":0},{"OBJECT_NAME":"STARLINK-11682 [DTC]","OBJECT_ID":"2025-119B","EPOCH":"2025-12-19T23:39:37.733760","MEAN_MOTION":15.71016539,"ECCENTRICITY":0.0002448,"INCLINATION":43.0005,"RA_OF_ASC_NODE":330.0569,"ARG_OF_PERICENTER":283.9218,"MEAN_ANOMALY":76.1377,"EPHEMERIS_TYPE":0,"CLASSIFICATION_TYPE":"U","NORAD_CAT_ID":64234,"ELEMENT_SET_NO":999,"REV_AT_EPOCH":3270,"BSTAR":0.0013906,"MEAN_MOTION_DOT":0.00183333,"MEAN_MOTION_DDOT":0},{"OBJECT_NAME":"STARLINK-11675 [DTC]","OBJECT_ID":"2025-119C","EPOCH":"2025-12-19T15:15:57.079584","MEAN_MOTION":15.70869704,"ECCENTRICITY":0.0002161,"INCLINATION":43.0002,"RA_OF_ASC_NODE":331.7161,"ARG_OF_PERICENTER":267.323,"MEAN_ANOMALY":92.739,"EPHEMERIS_TYPE":0,"CLASSIFICATION_TYPE":"U","NORAD_CAT_ID":64235,"ELEMENT_SET_NO":999,"REV_AT_EPOCH":3265,"BSTAR":0.0013959,"MEAN_MOTION_DOT":0.00182899,"MEAN_MOTION_DDOT":0},{"OBJECT_NAME":"STARLINK-11691 [DTC]","OBJECT_ID":"2025-119D","EPOCH":"2025-12-20T00:02:22.576416","MEAN_MOTION":15.70841447,"ECCENTRICITY":0.00016237,"INCLINATION":42.9995,"RA_OF_ASC_NODE":329.2856,"ARG_OF_PERICENTER":259.1272,"MEAN_ANOMALY":100.9413,"EPHEMERIS_TYPE":0,"CLASSIFICATION_TYPE":"U","NORAD_CAT_ID":64236,"ELEMENT_SET_NO":999,"REV_AT_EPOCH":3271,"BSTAR":0.0011409635,"MEAN_MOTION_DOT":0.00148608,"MEAN_MOTION_DDOT":0},{"OBJECT_NAME":"STARLINK-11670 [DTC]","OBJECT_ID":"2025-119E","EPOCH":"2025-12-20T06:54:29.003616","MEAN_MOTION":15.70903637,"ECCENTRICITY":0.00024325,"INCLINATION":43.0025,"RA_OF_ASC_NODE":328.0103,"ARG_OF_PERICENTER":268.4814,"MEAN_ANOMALY":91.5775,"EPHEMERIS_TYPE":0,"CLASSIFICATION_TYPE":"U","NORAD_CAT_ID":64237,"ELEMENT_SET_NO":999,"REV_AT_EPOCH":3275,"BSTAR":0.0015789048,"MEAN_MOTION_DOT":0.00207856,"MEAN_MOTION_DDOT":0},{"OBJECT_NAME":"STARLINK-11708 [DTC]","OBJECT_ID":"2025-119F","EPOCH":"2025-12-20T07:02:07.923264","MEAN_MOTION":15.70899382,"ECCENTRICITY":0.00012975,"INCLINATION":42.9987,"RA_OF_ASC_NODE":328.0526,"ARG_OF_PERICENTER":282.6749,"MEAN_ANOMALY":77.3974,"EPHEMERIS_TYPE":0,"CLASSIFICATION_TYPE":"U","NORAD_CAT_ID":64238,"ELEMENT_SET_NO":999,"REV_AT_EPOCH":3275,"BSTAR":0.001333387,"MEAN_MOTION_DOT":0.00174721,"MEAN_MOTION_DDOT":0},{"OBJECT_NAME":"STARLINK-11683 [DTC]","OBJECT_ID":"2025-119G","EPOCH":"2025-12-19T23:47:05.470656","MEAN_MOTION":15.7097377,"ECCENTRICITY":0.00016314,"INCLINATION":42.9996,"RA_OF_ASC_NODE":329.2008,"ARG_OF_PERICENTER":274.7661,"MEAN_ANOMALY":85.302,"EPHEMERIS_TYPE":0,"CLASSIFICATION_TYPE":"U","NORAD_CAT_ID":64239,"ELEMENT_SET_NO":999,"REV_AT_EPOCH":3271,"BSTAR":0.0021603322,"MEAN_MOTION_DOT":0.00288195,"MEAN_MOTION_DDOT":0},{"OBJECT_NAME":"STARLINK-11684 [DTC]","OBJECT_ID":"2025-119H","EPOCH":"2025-12-19T23:01:24.338208","MEAN_MOTION":15.70831908,"ECCENTRICITY":0.0001311,"INCLINATION":42.9993,"RA_OF_ASC_NODE":329.8407,"ARG_OF_PERICENTER":319.8146,"MEAN_ANOMALY":40.2624,"EPHEMERIS_TYPE":0,"CLASSIFICATION_TYPE":"U","NORAD_CAT_ID":64240,"ELEMENT_SET_NO":999,"REV_AT_EPOCH":3270,"BSTAR":0.0018995,"MEAN_MOTION_DOT":0.00250692,"MEAN_MOTION_DDOT":0},{"OBJECT_NAME":"STARLINK-11689 [DTC]","OBJECT_ID":"2025-119J","EPOCH":"2025-12-19T21:14:32.951040","MEAN_MOTION":15.70865626,"ECCENTRICITY":8.01e-5,"INCLINATION":42.9987,"RA_OF_ASC_NODE":330.138,"ARG_OF_PERICENTER":297.0301,"MEAN_ANOMALY":63.0485,"EPHEMERIS_TYPE":0,"CLASSIFICATION_TYPE":"U","NORAD_CAT_ID":64241,"ELEMENT_SET_NO":999,"REV_AT_EPOCH":3269,"BSTAR":0.00052,"MEAN_MOTION_DOT":0.00066884,"MEAN_MOTION_DDOT":0},{"OBJECT_NAME":"STARLINK-11690 [DTC]","OBJECT_ID":"2025-119K","EPOCH":"2025-12-20T00:10:01.256736","MEAN_MOTION":15.70981881,"ECCENTRICITY":0.00019748,"INCLINATION":43.0002,"RA_OF_ASC_NODE":329.3287,"ARG_OF_PERICENTER":224.1716,"MEAN_ANOMALY":135.8995,"EPHEMERIS_TYPE":0,"CLASSIFICATION_TYPE":"U","NORAD_CAT_ID":64242,"ELEMENT_SET_NO":999,"REV_AT_EPOCH":3271,"BSTAR":0.0019029018,"MEAN_MOTION_DOT":0.00252796,"MEAN_MOTION_DDOT":0},{"OBJECT_NAME":"STARLINK-11694 [DTC]","OBJECT_ID":"2025-119L","EPOCH":"2025-12-20T07:09:46.372032","MEAN_MOTION":15.70919194,"ECCENTRICITY":0.00026308,"INCLINATION":43.0015,"RA_OF_ASC_NODE":328.0952,"ARG_OF_PERICENTER":264.8955,"MEAN_ANOMALY":95.1612,"EPHEMERIS_TYPE":0,"CLASSIFICATION_TYPE":"U","NORAD_CAT_ID":64243,"ELEMENT_SET_NO":999,"REV_AT_EPOCH":3275,"BSTAR":0.0012876227,"MEAN_MOTION_DOT":0.00168739,"MEAN_MOTION_DDOT":0}]
